[
  {
    "OBJECT_NAME": "UMKA 1 (RS40S)",
    "OBJECT_ID": "2023-091G",
    "EPOCH": "2025-05-17T21:21:05.876640",
    "MEAN_MOTION": 15.15104687,
    "ECCENTRICITY": 0.0015712,
    "INCLINATION": 97.5591,
    "RA_OF_ASC_NODE": 193.3921,
    "ARG_OF_PERICENTER": 57.8578,
    "MEAN_ANOMALY": 302.4176,
    "EPHEMERIS_TYPE": 0,
    "CLASSIFICATION_TYPE": "U",
    "NORAD_CAT_ID": 57172,
    "ELEMENT_SET_NO": 999,
    "REV_AT_EPOCH": 10404,
    "BSTAR": 0.00043795,
    "MEAN_MOTION_DOT": 8.162e-05,
    "MEAN_MOTION_DDOT": 0
  },
  {
    "OBJECT_NAME": "CUBESX-HSE 3 (RS42S)",
    "OBJECT_ID": "2023-091N",
    "EPOCH": "2025-05-17T21:12:56.714400",
    "MEAN_MOTION": 15.20313107,
    "ECCENTRICITY": 0.0014567,
    "INCLINATION": 97.562,
    "RA_OF_ASC_NODE": 195.5531,
    "ARG_OF_PERICENTER": 48.4329,
    "MEAN_ANOMALY": 311.8152,
    "EPHEMERIS_TYPE": 0,
    "CLASSIFICATION_TYPE": "U",
    "NORAD_CAT_ID": 57178,
    "ELEMENT_SET_NO": 999,
    "REV_AT_EPOCH": 10416,
    "BSTAR": 0.00060481,
    "MEAN_MOTION_DOT": 0.00013124,
    "MEAN_MOTION_DDOT": 0
  },
  {
    "OBJECT_NAME": "MONITOR-3 (RS58S)",
    "OBJECT_ID": "2023-091Q",
    "EPOCH": "2025-05-17T19:42:05.377248",
    "MEAN_MOTION": 15.18711233,
    "ECCENTRICITY": 0.0015258,
    "INCLINATION": 97.5616,
    "RA_OF_ASC_NODE": 194.8148,
    "ARG_OF_PERICENTER": 50.3411,
    "MEAN_ANOMALY": 309.9166,
    "EPHEMERIS_TYPE": 0,
    "CLASSIFICATION_TYPE": "U",
    "NORAD_CAT_ID": 57180,
    "ELEMENT_SET_NO": 999,
    "REV_AT_EPOCH": 10411,
    "BSTAR": 0.00055861,
    "MEAN_MOTION_DOT": 0.00011566,
    "MEAN_MOTION_DDOT": 0
  },
  {
    "OBJECT_NAME": "MONITOR-4 (RS57S)",
    "OBJECT_ID": "2023-091S",
    "EPOCH": "2025-05-17T21:12:48.201408",
    "MEAN_MOTION": 15.18758991,
    "ECCENTRICITY": 0.0015291,
    "INCLINATION": 97.561,
    "RA_OF_ASC_NODE": 194.8357,
    "ARG_OF_PERICENTER": 50.6896,
    "MEAN_ANOMALY": 309.5691,
    "EPHEMERIS_TYPE": 0,
    "CLASSIFICATION_TYPE": "U",
    "NORAD_CAT_ID": 57182,
    "ELEMENT_SET_NO": 999,
    "REV_AT_EPOCH": 10412,
    "BSTAR": 0.00055525,
    "MEAN_MOTION_DOT": 0.00011512,
    "MEAN_MOTION_DDOT": 0
  },
  {
    "OBJECT_NAME": "MONITOR-2 (RS39S)",
    "OBJECT_ID": "2023-091U",
    "EPOCH": "2025-05-17T21:01:52.172256",
    "MEAN_MOTION": 15.14170341,
    "ECCENTRICITY": 0.0013534,
    "INCLINATION": 97.5619,
    "RA_OF_ASC_NODE": 193.6773,
    "ARG_OF_PERICENTER": 49.5596,
    "MEAN_ANOMALY": 310.6813,
    "EPHEMERIS_TYPE": 0,
    "CLASSIFICATION_TYPE": "U",
    "NORAD_CAT_ID": 57184,
    "ELEMENT_SET_NO": 999,
    "REV_AT_EPOCH": 10404,
    "BSTAR": 0.00035487,
    "MEAN_MOTION_DOT": 6.421e-05,
    "MEAN_MOTION_DDOT": 0
  },
  {
    "OBJECT_NAME": "SVYATOBOR 1 (RS60S)",
    "OBJECT_ID": "2023-091X",
    "EPOCH": "2025-05-17T20:28:38.911296",
    "MEAN_MOTION": 15.1860235,
    "ECCENTRICITY": 0.0011971,
    "INCLINATION": 97.5618,
    "RA_OF_ASC_NODE": 195.5566,
    "ARG_OF_PERICENTER": 43.4137,
    "MEAN_ANOMALY": 316.8038,
    "EPHEMERIS_TYPE": 0,
    "CLASSIFICATION_TYPE": "U",
    "NORAD_CAT_ID": 57187,
    "ELEMENT_SET_NO": 999,
    "REV_AT_EPOCH": 10416,
    "BSTAR": 0.00050977,
    "MEAN_MOTION_DOT": 0.00010502,
    "MEAN_MOTION_DDOT": 0
  },
  {
    "OBJECT_NAME": "VIZARD-METEO (RS38S)",
    "OBJECT_ID": "2023-091Z",
    "EPOCH": "2025-05-17T20:50:12.962976",
    "MEAN_MOTION": 15.23018061,
    "ECCENTRICITY": 0.0010117,
    "INCLINATION": 97.5605,
    "RA_OF_ASC_NODE": 197.3029,
    "ARG_OF_PERICENTER": 38.4962,
    "MEAN_ANOMALY": 321.6994,
    "EPHEMERIS_TYPE": 0,
    "CLASSIFICATION_TYPE": "U",
    "NORAD_CAT_ID": 57189,
    "ELEMENT_SET_NO": 999,
    "REV_AT_EPOCH": 10428,
    "BSTAR": 0.0006236,
    "MEAN_MOTION_DOT": 0.00014635,
    "MEAN_MOTION_DDOT": 0
  },
  {
    "OBJECT_NAME": "NANOZOND 1 (RS49S)",
    "OBJECT_ID": "2023-091AA",
    "EPOCH": "2025-05-17T20:03:43.238304",
    "MEAN_MOTION": 15.34542057,
    "ECCENTRICITY": 0.0006574,
    "INCLINATION": 97.556,
    "RA_OF_ASC_NODE": 200.7752,
    "ARG_OF_PERICENTER": 39.2563,
    "MEAN_ANOMALY": 320.9155,
    "EPHEMERIS_TYPE": 0,
    "CLASSIFICATION_TYPE": "U",
    "NORAD_CAT_ID": 57190,
    "ELEMENT_SET_NO": 999,
    "REV_AT_EPOCH": 10452,
    "BSTAR": 0.0010293,
    "MEAN_MOTION_DOT": 0.00034499,
    "MEAN_MOTION_DDOT": 0
  },
  {
    "OBJECT_NAME": "UTMN 2 (RS27S)",
    "OBJECT_ID": "2023-091AP",
    "EPOCH": "2025-05-17T19:37:34.199616",
    "MEAN_MOTION": 15.21327756,
    "ECCENTRICITY": 0.0010797,
    "INCLINATION": 97.5608,
    "RA_OF_ASC_NODE": 196.5983,
    "ARG_OF_PERICENTER": 40.0932,
    "MEAN_ANOMALY": 320.1098,
    "EPHEMERIS_TYPE": 0,
    "CLASSIFICATION_TYPE": "U",
    "NORAD_CAT_ID": 57203,
    "ELEMENT_SET_NO": 999,
    "REV_AT_EPOCH": 10423,
    "BSTAR": 0.00058075,
    "MEAN_MOTION_DOT": 0.00012962,
    "MEAN_MOTION_DDOT": 0
  },
  {
    "OBJECT_NAME": "ARCCUBE 1 (RS25S)",
    "OBJECT_ID": "2023-091AR",
    "EPOCH": "2025-05-17T14:04:22.547712",
    "MEAN_MOTION": 15.43354976,
    "ECCENTRICITY": 0.0004862,
    "INCLINATION": 97.5477,
    "RA_OF_ASC_NODE": 202.3364,
    "ARG_OF_PERICENTER": 35.629,
    "MEAN_ANOMALY": 324.5281,
    "EPHEMERIS_TYPE": 0,
    "CLASSIFICATION_TYPE": "U",
    "NORAD_CAT_ID": 57205,
    "ELEMENT_SET_NO": 999,
    "REV_AT_EPOCH": 10462,
    "BSTAR": 0.0013209,
    "MEAN_MOTION_DOT": 0.00059215,
    "MEAN_MOTION_DDOT": 0
  },
  {
    "OBJECT_NAME": "KUZGTU 1 (RS47S)",
    "OBJECT_ID": "2023-091AV",
    "EPOCH": "2025-05-17T20:03:17.527392",
    "MEAN_MOTION": 15.19722103,
    "ECCENTRICITY": 0.0014622,
    "INCLINATION": 97.5595,
    "RA_OF_ASC_NODE": 195.0864,
    "ARG_OF_PERICENTER": 50.1199,
    "MEAN_ANOMALY": 310.1319,
    "EPHEMERIS_TYPE": 0,
    "CLASSIFICATION_TYPE": "U",
    "NORAD_CAT_ID": 57217,
    "ELEMENT_SET_NO": 999,
    "REV_AT_EPOCH": 10414,
    "BSTAR": 0.00061183,
    "MEAN_MOTION_DOT": 0.00013051,
    "MEAN_MOTION_DDOT": 0
  }
]