UMKA 1 (RS40S)          
1 57172U 23091G   25137.88965135  .00008162  00000+0  43795-3 0  9997
2 57172  97.5591 193.3921 0015712  57.8578 302.4176 15.15104687104044
CUBESX-HSE 3 (RS42S)    
1 57178U 23091N   25137.88398975  .00013124  00000+0  60481-3 0  9990
2 57178  97.5620 195.5531 0014567  48.4329 311.8152 15.20313107104167
MONITOR-3 (RS58S)       
1 57180U 23091Q   25137.82089557  .00011566  00000+0  55861-3 0  9994
2 57180  97.5616 194.8148 0015258  50.3411 309.9166 15.18711233104110
MONITOR-4 (RS57S)       
1 57182U 23091S   25137.88389122  .00011512  00000+0  55525-3 0  9991
2 57182  97.5610 194.8357 0015291  50.6896 309.5691 15.18758991104127
MONITOR-2 (RS39S)       
1 57184U 23091U   25137.87629829  .00006421  00000+0  35487-3 0  9991
2 57184  97.5619 193.6773 0013534  49.5596 310.6813 15.14170341104042
SVYATOBOR 1 (RS60S)     
1 57187U 23091X   25137.85322814  .00010502  00000+0  50977-3 0  9992
2 57187  97.5618 195.5566 0011971  43.4137 316.8038 15.18602350104166
VIZARD-METEO (RS38S)    
1 57189U 23091Z   25137.86820559  .00014635  00000+0  62360-3 0  9994
2 57189  97.5605 197.3029 0010117  38.4962 321.6994 15.23018061104283
NANOZOND 1 (RS49S)      
1 57190U 23091AA  25137.83591711  .00034499  00000+0  10293-2 0  9995
2 57190  97.5560 200.7752 0006574  39.2563 320.9155 15.34542057104522
UTMN 2 (RS27S)          
1 57203U 23091AP  25137.81775694  .00012962  00000+0  58075-3 0  9994
2 57203  97.5608 196.5983 0010797  40.0932 320.1098 15.21327756104239
ARCCUBE 1 (RS25S)       
1 57205U 23091AR  25137.58637208  .00059215  00000+0  13209-2 0  9999
2 57205  97.5477 202.3364 0004862  35.6290 324.5281 15.43354976104620
KUZGTU 1 (RS47S)        
1 57217U 23091AV  25137.83561953  .00013051  00000+0  61183-3 0  9996
2 57217  97.5595 195.0864 0014622  50.1199 310.1319 15.19722103104146
